{"type": "FeatureCollection", "features": [ {"type": "Feature", "properties": {"norad_id": 41836, "name": "HIMAWARI-9", "group": "weather", "lat": 0.023404020507135647, "lon": 114.73192651766611, "alt_km": 35791.69715023342, "timestamp": "2025-12-10T16:57:11.277562+00:00", "meta": {"OBJECT_NAME": "HIMAWARI-9", "OBJECT_ID": "2016-064A", "EPOCH": "2025-12-10T08:49:38.682048", "MEAN_MOTION": 1.00268832, "ECCENTRICITY": 0.0001292, "INCLINATION": 0.0264, "RA_OF_ASC_NODE": 79.943, "ARG_OF_PERICENTER": 185.156, "MEAN_ANOMALY": 87.4277, "EPHEMERIS_TYPE": 0, "CLASSIFICATION_TYPE": "U", "NORAD_CAT_ID": 41836, "ELEMENT_SET_NO": 999, "REV_AT_EPOCH": 3331, "BSTAR": 0, "MEAN_MOTION_DOT": -2.71e-06, "MEAN_MOTION_DDOT": 0}, "tle": {"line1": "1 41836U 16064A   25344.36780882 -.00000271  00000+0  00000+0 0  9998", "line2": "2 41836   0.0264  79.9430 0001292 185.1560  87.4277  1.00268832 33313"}}, "geometry": {"type": "Point", "coordinates": [114.73192651766611, 0.023404020507135647]}}, {"type": "Feature", "properties": {"norad_id": 41866, "name": "GOES 16", "group": "weather", "lat": 0.031565324568391395, "lon": -130.7218533840499, "alt_km": 35774.267819286186, "timestamp": "2025-12-10T16:57:11.277575+00:00", "meta": {"OBJECT_NAME": "GOES 16", "OBJECT_ID": "2016-071A", "EPOCH": "2025-12-10T10:23:06.017856", "MEAN_MOTION": 1.00271273, "ECCENTRICITY": 0.0003344, "INCLINATION": 0.0648, "RA_OF_ASC_NODE": 104.3227, "ARG_OF_PERICENTER": 157.3495, "MEAN_ANOMALY": 228.8386, "EPHEMERIS_TYPE": 0, "CLASSIFICATION_TYPE": "U", "NORAD_CAT_ID": 41866, "ELEMENT_SET_NO": 999, "REV_AT_EPOCH": 3321, "BSTAR": 0, "MEAN_MOTION_DOT": -8.7e-07, "MEAN_MOTION_DDOT": 0}, "tle": {"line1": "1 41866U 16071A   25344.43270854 -.00000087  00000+0  00000+0 0  9995", "line2": "2 41866   0.0648 104.3227 0003344 157.3495 228.8386  1.00271273 33211"}}, "geometry": {"type": "Point", "coordinates": [-130.7218533840499, 0.031565324568391395]}}, {"type": "Feature", "properties": {"norad_id": 41882, "name": "FENGYUN 4A", "group": "weather", "lat": 0.506625070858924, "lon": 97.7817493469684, "alt_km": 35797.82981046778, "timestamp": "2025-12-10T16:57:11.277587+00:00", "meta": {"OBJECT_NAME": "FENGYUN 4A", "OBJECT_ID": "2016-077A", "EPOCH": "2025-12-09T21:00:35.659872", "MEAN_MOTION": 1.00275053, "ECCENTRICITY": 0.00048891, "INCLINATION": 1.8422, "RA_OF_ASC_NODE": 82.422, "ARG_OF_PERICENTER": 142.7758, "MEAN_ANOMALY": 292.6612, "EPHEMERIS_TYPE": 0, "CLASSIFICATION_TYPE": "U", "NORAD_CAT_ID": 41882, "ELEMENT_SET_NO": 999, "REV_AT_EPOCH": 3303, "BSTAR": 0, "MEAN_MOTION_DOT": -3.54e-06, "MEAN_MOTION_DDOT": 0}, "tle": {"line1": "1 41882U 16077A   25343.87541273 -.00000354  00000+0  00000+0 0  9999", "line2": "2 41882   1.8422  82.4220 0004889 142.7758 292.6612  1.00275053 33033"}}, "geometry": {"type": "Point", "coordinates": [97.7817493469684, 0.506625070858924]}}, {"type": "Feature", "properties": {"norad_id": 41884, "name": "CYGFM05", "group": "weather", "lat": 2.939733608759707, "lon": -123.8026619906524, "alt_km": 415.94151666398557, "timestamp": "2025-12-10T16:57:11.277599+00:00", "meta": {"OBJECT_NAME": "CYGFM05", "OBJECT_ID": "2016-078A", "EPOCH": "2025-12-10T11:33:25.680672", "MEAN_MOTION": 15.47503338, "ECCENTRICITY": 0.0009794, "INCLINATION": 34.9599, "RA_OF_ASC_NODE": 61.8808, "ARG_OF_PERICENTER": 162.5762, "MEAN_ANOMALY": 197.5297, "EPHEMERIS_TYPE": 0, "CLASSIFICATION_TYPE": "U", "NORAD_CAT_ID": 41884, "ELEMENT_SET_NO": 999, "REV_AT_EPOCH": 49941, "BSTAR": 0.00051452, "MEAN_MOTION_DOT": 0.0002734, "MEAN_MOTION_DDOT": 0}, "tle": {"line1": "1 41884U 16078A   25344.48154723  .00027340  00000+0  51452-3 0  9994", "line2": "2 41884  34.9599  61.8808 0009794 162.5762 197.5297 15.47503338499411"}}, "geometry": {"type": "Point", "coordinates": [-123.8026619906524, 2.939733608759707]}}, {"type": "Feature", "properties": {"norad_id": 41885, "name": "CYGFM04", "group": "weather", "lat": 18.703963177965267, "lon": 64.261418122973, "alt_km": 418.02759573198637, "timestamp": "2025-12-10T16:57:11.277617+00:00", "meta": {"OBJECT_NAME": "CYGFM04", "OBJECT_ID": "2016-078B", "EPOCH": "2025-12-10T12:10:11.957376", "MEAN_MOTION": 15.50209953, "ECCENTRICITY": 0.0009183, "INCLINATION": 34.9355, "RA_OF_ASC_NODE": 36.555, "ARG_OF_PERICENTER": 190.5613, "MEAN_ANOMALY": 169.4917, "EPHEMERIS_TYPE": 0, "CLASSIFICATION_TYPE": "U", "NORAD_CAT_ID": 41885, "ELEMENT_SET_NO": 999, "REV_AT_EPOCH": 49959, "BSTAR": 0.00052239, "MEAN_MOTION_DOT": 0.00030547, "MEAN_MOTION_DDOT": 0}, "tle": {"line1": "1 41885U 16078B   25344.50708284  .00030547  00000+0  52239-3 0  9992", "line2": "2 41885  34.9355  36.5550 0009183 190.5613 169.4917 15.50209953499599"}}, "geometry": {"type": "Point", "coordinates": [64.261418122973, 18.703963177965267]}}, {"type": "Feature", "properties": {"norad_id": 41886, "name": "CYGFM02", "group": "weather", "lat": 20.152813569463458, "lon": 65.30760065536069, "alt_km": 414.68311165625073, "timestamp": "2025-12-10T16:57:11.277639+00:00", "meta": {"OBJECT_NAME": "CYGFM02", "OBJECT_ID": "2016-078C", "EPOCH": "2025-12-10T10:37:02.703360", "MEAN_MOTION": 15.51574732, "ECCENTRICITY": 0.0010869, "INCLINATION": 34.9444, "RA_OF_ASC_NODE": 35.3352, "ARG_OF_PERICENTER": 189.4667, "MEAN_ANOMALY": 170.5851, "EPHEMERIS_TYPE": 0, "CLASSIFICATION_TYPE": "U", "NORAD_CAT_ID": 41886, "ELEMENT_SET_NO": 999, "REV_AT_EPOCH": 49971, "BSTAR": 0.00052963, "MEAN_MOTION_DOT": 0.00032552, "MEAN_MOTION_DDOT": 0}, "tle": {"line1": "1 41886U 16078C   25344.44239240  .00032552  00000+0  52963-3 0  9999", "line2": "2 41886  34.9444  35.3352 0010869 189.4667 170.5851 15.51574732499710"}}, "geometry": {"type": "Point", "coordinates": [65.30760065536069, 20.152813569463458]}}, {"type": "Feature", "properties": {"norad_id": 41887, "name": "CYGFM01", "group": "weather", "lat": -19.111667921168042, "lon": -87.4703241731173, "alt_km": 419.93672748053905, "timestamp": "2025-12-10T16:57:11.277659+00:00", "meta": {"OBJECT_NAME": "CYGFM01", "OBJECT_ID": "2016-078D", "EPOCH": "2025-12-10T11:23:14.678016", "MEAN_MOTION": 15.48077649, "ECCENTRICITY": 0.0009391, "INCLINATION": 34.943, "RA_OF_ASC_NODE": 64.2923, "ARG_OF_PERICENTER": 154.4149, "MEAN_ANOMALY": 205.7039, "EPHEMERIS_TYPE": 0, "CLASSIFICATION_TYPE": "U", "NORAD_CAT_ID": 41887, "ELEMENT_SET_NO": 999, "REV_AT_EPOCH": 49935, "BSTAR": 0.00051341, "MEAN_MOTION_DOT": 0.00027833, "MEAN_MOTION_DDOT": 0}, "tle": {"line1": "1 41887U 16078D   25344.47447544  .00027833  00000+0  51341-3 0  9996", "line2": "2 41887  34.9430  64.2923 0009391 154.4149 205.7039 15.48077649499356"}}, "geometry": {"type": "Point", "coordinates": [-87.4703241731173, -19.111667921168042]}}, {"type": "Feature", "properties": {"norad_id": 41888, "name": "CYGFM08", "group": "weather", "lat": -33.474968592925144, "lon": -62.9568214496397, "alt_km": 418.71182835336367, "timestamp": "2025-12-10T16:57:11.277678+00:00", "meta": {"OBJECT_NAME": "CYGFM08", "OBJECT_ID": "2016-078E", "EPOCH": "2025-12-10T11:13:17.577120", "MEAN_MOTION": 15.49276965, "ECCENTRICITY": 0.0011255, "INCLINATION": 34.9463, "RA_OF_ASC_NODE": 47.3562, "ARG_OF_PERICENTER": 178.1643, "MEAN_ANOMALY": 181.9121, "EPHEMERIS_TYPE": 0, "CLASSIFICATION_TYPE": "U", "NORAD_CAT_ID": 41888, "ELEMENT_SET_NO": 999, "REV_AT_EPOCH": 49958, "BSTAR": 0.00052757, "MEAN_MOTION_DOT": 0.00029867, "MEAN_MOTION_DDOT": 0}, "tle": {"line1": "1 41888U 16078E   25344.46756455  .00029867  00000+0  52757-3 0  9991", "line2": "2 41888  34.9463  47.3562 0011255 178.1643 181.9121 15.49276965499583"}}, "geometry": {"type": "Point", "coordinates": [-62.9568214496397, -33.474968592925144]}}, {"type": "Feature", "properties": {"norad_id": 41890, "name": "CYGFM07", "group": "weather", "lat": -29.002824974819276, "lon": -92.67191425167353, "alt_km": 413.8137959339201, "timestamp": "2025-12-10T16:57:11.277695+00:00", "meta": {"OBJECT_NAME": "CYGFM07", "OBJECT_ID": "2016-078G", "EPOCH": "2025-12-10T11:17:40.555392", "MEAN_MOTION": 15.49854038, "ECCENTRICITY": 0.0009645, "INCLINATION": 34.9482, "RA_OF_ASC_NODE": 36.3296, "ARG_OF_PERICENTER": 196.011, "MEAN_ANOMALY": 164.0308, "EPHEMERIS_TYPE": 0, "CLASSIFICATION_TYPE": "U", "NORAD_CAT_ID": 41890, "ELEMENT_SET_NO": 999, "REV_AT_EPOCH": 49960, "BSTAR": 0.00052319, "MEAN_MOTION_DOT": 0.00030212, "MEAN_MOTION_DDOT": 0}, "tle": {"line1": "1 41890U 16078G   25344.47060828  .00030212  00000+0  52319-3 0  9997", "line2": "2 41890  34.9482  36.3296 0009645 196.0110 164.0308 15.49854038499602"}}, "geometry": {"type": "Point", "coordinates": [-92.67191425167353, -29.002824974819276]}}, {"type": "Feature", "properties": {"norad_id": 41891, "name": "CYGFM03", "group": "weather", "lat": 33.2133165161546, "lon": 106.36412349927141, "alt_km": 413.51397185596034, "timestamp": "2025-12-10T16:57:11.277712+00:00", "meta": {"OBJECT_NAME": "CYGFM03", "OBJECT_ID": "2016-078H", "EPOCH": "2025-12-10T12:00:03.543264", "MEAN_MOTION": 15.49757356, "ECCENTRICITY": 0.0008964, "INCLINATION": 34.9435, "RA_OF_ASC_NODE": 38.0538, "ARG_OF_PERICENTER": 183.3177, "MEAN_ANOMALY": 176.7487, "EPHEMERIS_TYPE": 0, "CLASSIFICATION_TYPE": "U", "NORAD_CAT_ID": 41891, "ELEMENT_SET_NO": 999, "REV_AT_EPOCH": 49958, "BSTAR": 0.000522, "MEAN_MOTION_DOT": 0.00030031, "MEAN_MOTION_DDOT": 0}, "tle": {"line1": "1 41891U 16078H   25344.50004101  .00030031  00000+0  52200-3 0  9992", "line2": "2 41891  34.9435  38.0538 0008964 183.3177 176.7487 15.49757356499584"}}, "geometry": {"type": "Point", "coordinates": [106.36412349927141, 33.2133165161546]}}]}